[
  {
    "OBJECT_NAME": "STARLINK-3557",
    "OBJECT_ID": "22017AL",
    "EPOCH": "2025-11-11T08:00:03.000384",
    "MEAN_MOTION": 15.66939732,
    "ECCENTRICITY": 0.0005812,
    "INCLINATION": 53.1886,
    "RA_OF_ASC_NODE": 110.5859,
    "ARG_OF_PERICENTER": 286.4955,
    "MEAN_ANOMALY": 167.4375,
    "EPHEMERIS_TYPE": 0,
    "CLASSIFICATION_TYPE": "U",
    "NORAD_CAT_ID": 51802,
    "ELEMENT_SET_NO": 999,
    "REV_AT_EPOCH": 595,
    "BSTAR": 0.0025208,
    "MEAN_MOTION_DOT": 0.0028171,
    "MEAN_MOTION_DDOT": 0.0,
    "TLE_LINE1": "1 51802U 22017AL  25315.33336806  .00281710  00000+0  25208-2 0  9993",
    "TLE_LINE2": "2 51802  53.1886 110.5859 0005812 286.4955 167.4375 15.66939732  5956",
    "COMMENT": "Grouped by shell and plane from TLE"
  },
  {
    "OBJECT_NAME": "STARLINK-5024",
    "OBJECT_ID": "22119R",
    "EPOCH": "2025-11-11T06:24:19.965600",
    "MEAN_MOTION": 15.64779701,
    "ECCENTRICITY": 0.0002569,
    "INCLINATION": 53.2155,
    "RA_OF_ASC_NODE": 112.7343,
    "ARG_OF_PERICENTER": 287.8322,
    "MEAN_ANOMALY": 72.2414,
    "EPHEMERIS_TYPE": 0,
    "CLASSIFICATION_TYPE": "U",
    "NORAD_CAT_ID": 53901,
    "ELEMENT_SET_NO": 999,
    "REV_AT_EPOCH": 17413,
    "BSTAR": 0.0018468000000000002,
    "MEAN_MOTION_DOT": 0.00186839,
    "MEAN_MOTION_DDOT": 0.0,
    "TLE_LINE1": "1 53901U 22119R   25315.26689775  .00186839  00000+0  18468-2 0  9992",
    "TLE_LINE2": "2 53901  53.2155 112.7343 0002569 287.8322  72.2414 15.64779701174139",
    "COMMENT": "Grouped by shell and plane from TLE"
  },
  {
    "OBJECT_NAME": "STARLINK-5326",
    "OBJECT_ID": "23021AE",
    "EPOCH": "2025-11-11T08:00:03.000384",
    "MEAN_MOTION": 15.81460075,
    "ECCENTRICITY": 0.0003949,
    "INCLINATION": 69.9972,
    "RA_OF_ASC_NODE": 116.5224,
    "ARG_OF_PERICENTER": 271.7512,
    "MEAN_ANOMALY": 328.2366,
    "EPHEMERIS_TYPE": 0,
    "CLASSIFICATION_TYPE": "U",
    "NORAD_CAT_ID": 55656,
    "ELEMENT_SET_NO": 999,
    "REV_AT_EPOCH": 582,
    "BSTAR": 0.0049157,
    "MEAN_MOTION_DOT": 0.01088317,
    "MEAN_MOTION_DDOT": 0.0,
    "TLE_LINE1": "1 55656U 23021AE  25315.33336806  .01088317  00000+0  49157-2 0  9998",
    "TLE_LINE2": "2 55656  69.9972 116.5224 0003949 271.7512 328.2366 15.81460075  5824",
    "COMMENT": "Grouped by shell and plane from TLE"
  },
  {
    "OBJECT_NAME": "STARLINK-11145 [DTC]",
    "OBJECT_ID": "24107A",
    "EPOCH": "2025-11-11T03:35:26.766240",
    "MEAN_MOTION": 15.69709519,
    "ECCENTRICITY": 6.76e-05,
    "INCLINATION": 53.157,
    "RA_OF_ASC_NODE": 115.9373,
    "ARG_OF_PERICENTER": 58.8104,
    "MEAN_ANOMALY": 301.298,
    "EPHEMERIS_TYPE": 0,
    "CLASSIFICATION_TYPE": "U",
    "NORAD_CAT_ID": 59945,
    "ELEMENT_SET_NO": 999,
    "REV_AT_EPOCH": 8352,
    "BSTAR": 1.8074000000000003e-05,
    "MEAN_MOTION_DOT": 1.602e-05,
    "MEAN_MOTION_DDOT": 0.0,
    "TLE_LINE1": "1 59945U 24107A   25315.14961535  .00001602  00000+0  18074-4 0  9998",
    "TLE_LINE2": "2 59945  53.1570 115.9373 0000676  58.8104 301.2980 15.69709519 83522",
    "COMMENT": "Grouped by shell and plane from TLE"
  },
  {
    "OBJECT_NAME": "STARLINK-11113 [DTC]",
    "OBJECT_ID": "24107C",
    "EPOCH": "2025-11-10T10:53:50.488512",
    "MEAN_MOTION": 15.69716519,
    "ECCENTRICITY": 0.0001163,
    "INCLINATION": 53.1554,
    "RA_OF_ASC_NODE": 118.677,
    "ARG_OF_PERICENTER": 83.1874,
    "MEAN_ANOMALY": 276.9276,
    "EPHEMERIS_TYPE": 0,
    "CLASSIFICATION_TYPE": "U",
    "NORAD_CAT_ID": 59947,
    "ELEMENT_SET_NO": 999,
    "REV_AT_EPOCH": 8342,
    "BSTAR": 2.1359e-05,
    "MEAN_MOTION_DOT": 2e-05,
    "MEAN_MOTION_DDOT": 0.0,
    "TLE_LINE1": "1 59947U 24107C   25314.45405658  .00002000  00000+0  21359-4 0  9995",
    "TLE_LINE2": "2 59947  53.1554 118.6770 0001163  83.1874 276.9276 15.69716519 83427",
    "COMMENT": "Grouped by shell and plane from TLE"
  },
  {
    "OBJECT_NAME": "STARLINK-11123 [DTC]",
    "OBJECT_ID": "24107D",
    "EPOCH": "2025-11-10T12:04:28.143264",
    "MEAN_MOTION": 15.697532,
    "ECCENTRICITY": 0.0001382,
    "INCLINATION": 53.1585,
    "RA_OF_ASC_NODE": 119.0131,
    "ARG_OF_PERICENTER": 82.2516,
    "MEAN_ANOMALY": 277.8659,
    "EPHEMERIS_TYPE": 0,
    "CLASSIFICATION_TYPE": "U",
    "NORAD_CAT_ID": 59948,
    "ELEMENT_SET_NO": 999,
    "REV_AT_EPOCH": 8348,
    "BSTAR": 0.0,
    "MEAN_MOTION_DOT": -7.586e-05,
    "MEAN_MOTION_DDOT": 0.0,
    "TLE_LINE1": "1 59948U 24107D   25314.50310351 -.00007586  00000+0 -57701-4 0  9993",
    "TLE_LINE2": "2 59948  53.1585 119.0131 0001382  82.2516 277.8659 15.69753200 83483",
    "COMMENT": "Grouped by shell and plane from TLE"
  },
  {
    "OBJECT_NAME": "STARLINK-11138 [DTC]",
    "OBJECT_ID": "24107E",
    "EPOCH": "2025-11-11T04:24:44.741088",
    "MEAN_MOTION": 15.69721429,
    "ECCENTRICITY": 7.48e-05,
    "INCLINATION": 53.1628,
    "RA_OF_ASC_NODE": 115.4275,
    "ARG_OF_PERICENTER": 332.6352,
    "MEAN_ANOMALY": 27.4626,
    "EPHEMERIS_TYPE": 0,
    "CLASSIFICATION_TYPE": "U",
    "NORAD_CAT_ID": 59949,
    "ELEMENT_SET_NO": 999,
    "REV_AT_EPOCH": 8359,
    "BSTAR": 6.247700000000001e-06,
    "MEAN_MOTION_DOT": 1.69e-06,
    "MEAN_MOTION_DDOT": 0.0,
    "TLE_LINE1": "1 59949U 24107E   25315.18385117  .00000169  00000+0  62477-5 0  9996",
    "TLE_LINE2": "2 59949  53.1628 115.4275 0000748 332.6352  27.4626 15.69721429 83599",
    "COMMENT": "Grouped by shell and plane from TLE"
  },
  {
    "OBJECT_NAME": "STARLINK-11130 [DTC]",
    "OBJECT_ID": "24107F",
    "EPOCH": "2025-11-10T18:04:09.334848",
    "MEAN_MOTION": 15.69713949,
    "ECCENTRICITY": 4.69e-05,
    "INCLINATION": 53.1581,
    "RA_OF_ASC_NODE": 117.7257,
    "ARG_OF_PERICENTER": 39.366,
    "MEAN_ANOMALY": 320.7392,
    "EPHEMERIS_TYPE": 0,
    "CLASSIFICATION_TYPE": "U",
    "NORAD_CAT_ID": 59950,
    "ELEMENT_SET_NO": 999,
    "REV_AT_EPOCH": 8346,
    "BSTAR": 1.2705e-05,
    "MEAN_MOTION_DOT": 9.52e-06,
    "MEAN_MOTION_DDOT": 0.0,
    "TLE_LINE1": "1 59950U 24107F   25314.75288582  .00000952  00000+0  12705-4 0  9996",
    "TLE_LINE2": "2 59950  53.1581 117.7257 0000469  39.3660 320.7392 15.69713949 83460",
    "COMMENT": "Grouped by shell and plane from TLE"
  },
  {
    "OBJECT_NAME": "STARLINK-11124 [DTC]",
    "OBJECT_ID": "24107H",
    "EPOCH": "2025-11-10T11:43:17.083488",
    "MEAN_MOTION": 15.69718489,
    "ECCENTRICITY": 4.39e-05,
    "INCLINATION": 53.1606,
    "RA_OF_ASC_NODE": 118.9132,
    "ARG_OF_PERICENTER": 77.9805,
    "MEAN_ANOMALY": 282.1262,
    "EPHEMERIS_TYPE": 0,
    "CLASSIFICATION_TYPE": "U",
    "NORAD_CAT_ID": 59952,
    "ELEMENT_SET_NO": 999,
    "REV_AT_EPOCH": 8349,
    "BSTAR": 1.4575e-05,
    "MEAN_MOTION_DOT": 1.179e-05,
    "MEAN_MOTION_DDOT": 0.0,
    "TLE_LINE1": "1 59952U 24107H   25314.48839217  .00001179  00000+0  14575-4 0  9994",
    "TLE_LINE2": "2 59952  53.1606 118.9132 0000439  77.9805 282.1262 15.69718489 83495",
    "COMMENT": "Grouped by shell and plane from TLE"
  },
  {
    "OBJECT_NAME": "STARLINK-11143 [DTC]",
    "OBJECT_ID": "24107J",
    "EPOCH": "2025-11-11T04:17:41.112384",
    "MEAN_MOTION": 15.69697356,
    "ECCENTRICITY": 0.0001002,
    "INCLINATION": 53.1593,
    "RA_OF_ASC_NODE": 115.3972,
    "ARG_OF_PERICENTER": 76.2586,
    "MEAN_ANOMALY": 283.8544,
    "EPHEMERIS_TYPE": 0,
    "CLASSIFICATION_TYPE": "U",
    "NORAD_CAT_ID": 59953,
    "ELEMENT_SET_NO": 999,
    "REV_AT_EPOCH": 8353,
    "BSTAR": 3.5759999999999996e-05,
    "MEAN_MOTION_DOT": 3.744e-05,
    "MEAN_MOTION_DDOT": 0.0,
    "TLE_LINE1": "1 59953U 24107J   25315.17894806  .00003744  00000+0  35760-4 0  9996",
    "TLE_LINE2": "2 59953  53.1593 115.3972 0001002  76.2586 283.8544 15.69697356 83534",
    "COMMENT": "Grouped by shell and plane from TLE"
  },
  {
    "OBJECT_NAME": "STARLINK-11133 [DTC]",
    "OBJECT_ID": "24107K",
    "EPOCH": "2025-11-10T20:32:12.168960",
    "MEAN_MOTION": 15.69714885,
    "ECCENTRICITY": 6.8e-05,
    "INCLINATION": 53.1592,
    "RA_OF_ASC_NODE": 116.9319,
    "ARG_OF_PERICENTER": 77.8726,
    "MEAN_ANOMALY": 282.2368,
    "EPHEMERIS_TYPE": 0,
    "CLASSIFICATION_TYPE": "U",
    "NORAD_CAT_ID": 59954,
    "ELEMENT_SET_NO": 999,
    "REV_AT_EPOCH": 8348,
    "BSTAR": 9.0935e-06,
    "MEAN_MOTION_DOT": 5.14e-06,
    "MEAN_MOTION_DDOT": 0.0,
    "TLE_LINE1": "1 59954U 24107K   25314.85569640  .00000514  00000+0  90935-5 0  9994",
    "TLE_LINE2": "2 59954  53.1592 116.9319 0000680  77.8726 282.2368 15.69714885 83488",
    "COMMENT": "Grouped by shell and plane from TLE"
  },
  {
    "OBJECT_NAME": "STARLINK-11144 [DTC]",
    "OBJECT_ID": "24107L",
    "EPOCH": "2025-11-10T17:21:46.006560",
    "MEAN_MOTION": 15.69719574,
    "ECCENTRICITY": 0.0001055,
    "INCLINATION": 53.1581,
    "RA_OF_ASC_NODE": 117.5347,
    "ARG_OF_PERICENTER": 110.5222,
    "MEAN_ANOMALY": 249.591,
    "EPHEMERIS_TYPE": 0,
    "CLASSIFICATION_TYPE": "U",
    "NORAD_CAT_ID": 59955,
    "ELEMENT_SET_NO": 999,
    "REV_AT_EPOCH": 8352,
    "BSTAR": 2.3549e-06,
    "MEAN_MOTION_DOT": -3.03e-06,
    "MEAN_MOTION_DDOT": 0.0,
    "TLE_LINE1": "1 59955U 24107L   25314.72344915 -.00000303  00000+0  23549-5 0  9991",
    "TLE_LINE2": "2 59955  53.1581 117.5347 0001055 110.5222 249.5910 15.69719574 83522",
    "COMMENT": "Grouped by shell and plane from TLE"
  },
  {
    "OBJECT_NAME": "STARLINK-11134 [DTC]",
    "OBJECT_ID": "24107M",
    "EPOCH": "2025-11-11T03:56:29.751072",
    "MEAN_MOTION": 15.69659533,
    "ECCENTRICITY": 0.0001764,
    "INCLINATION": 53.1575,
    "RA_OF_ASC_NODE": 115.2992,
    "ARG_OF_PERICENTER": 99.4028,
    "MEAN_ANOMALY": 260.719,
    "EPHEMERIS_TYPE": 0,
    "CLASSIFICATION_TYPE": "U",
    "NORAD_CAT_ID": 59956,
    "ELEMENT_SET_NO": 999,
    "REV_AT_EPOCH": 8346,
    "BSTAR": 7.341e-05,
    "MEAN_MOTION_DOT": 8.295e-05,
    "MEAN_MOTION_DDOT": 0.0,
    "TLE_LINE1": "1 59956U 24107M   25315.16423323  .00008295  00000+0  73410-4 0  9990",
    "TLE_LINE2": "2 59956  53.1575 115.2992 0001764  99.4028 260.7190 15.69659533 83469",
    "COMMENT": "Grouped by shell and plane from TLE"
  }
]